[{"OBJECT_NAME":"STARLINK-36783","OBJECT_ID":"2026-034Z","EPOCH":"2026-03-08T21:25:13.679616","MEAN_MOTION":15.80991855,"ECCENTRICITY":8.118e-5,"INCLINATION":53.1595,"RA_OF_ASC_NODE":215.1467,"ARG_OF_PERICENTER":106.2526,"MEAN_ANOMALY":253.8587,"EPHEMERIS_TYPE":0,"CLASSIFICATION_TYPE":"U","NORAD_CAT_ID":67873,"ELEMENT_SET_NO":999,"REV_AT_EPOCH":381,"BSTAR":0.0013882559,"MEAN_MOTION_DOT":0.00284059,"MEAN_MOTION_DDOT":0},{"OBJECT_NAME":"STARLINK-36730","OBJECT_ID":"2026-034AA","EPOCH":"2026-03-08T21:24:08.837280","MEAN_MOTION":15.81020028,"ECCENTRICITY":0.00013458,"INCLINATION":53.1596,"RA_OF_ASC_NODE":215.1421,"ARG_OF_PERICENTER":46.6952,"MEAN_ANOMALY":313.4182,"EPHEMERIS_TYPE":0,"CLASSIFICATION_TYPE":"U","NORAD_CAT_ID":67874,"ELEMENT_SET_NO":999,"REV_AT_EPOCH":381,"BSTAR":0.0017762648,"MEAN_MOTION_DOT":0.00367705,"MEAN_MOTION_DDOT":0},{"OBJECT_NAME":"STARLINK-36727","OBJECT_ID":"2026-034AB","EPOCH":"2026-03-08T21:23:04.053696","MEAN_MOTION":15.81008674,"ECCENTRICITY":0.0001121,"INCLINATION":53.1597,"RA_OF_ASC_NODE":215.1364,"ARG_OF_PERICENTER":50.3906,"MEAN_ANOMALY":309.7215,"EPHEMERIS_TYPE":0,"CLASSIFICATION_TYPE":"U","NORAD_CAT_ID":67875,"ELEMENT_SET_NO":999,"REV_AT_EPOCH":381,"BSTAR":0.00167536,"MEAN_MOTION_DOT":0.00345704,"MEAN_MOTION_DDOT":0},{"OBJECT_NAME":"STARLINK-36743","OBJECT_ID":"2026-034AC","EPOCH":"2026-03-08T21:21:59.380704","MEAN_MOTION":15.80954822,"ECCENTRICITY":9.922e-5,"INCLINATION":53.1601,"RA_OF_ASC_NODE":215.131,"ARG_OF_PERICENTER":73.4545,"MEAN_ANOMALY":286.6587,"EPHEMERIS_TYPE":0,"CLASSIFICATION_TYPE":"U","NORAD_CAT_ID":67876,"ELEMENT_SET_NO":999,"REV_AT_EPOCH":381,"BSTAR":0.0010222898,"MEAN_MOTION_DOT":0.0020675,"MEAN_MOTION_DDOT":0},{"OBJECT_NAME":"STARLINK-36784","OBJECT_ID":"2026-034AD","EPOCH":"2026-03-08T21:20:54.461472","MEAN_MOTION":15.80981248,"ECCENTRICITY":8.576e-5,"INCLINATION":53.1601,"RA_OF_ASC_NODE":215.126,"ARG_OF_PERICENTER":112.4561,"MEAN_ANOMALY":247.6552,"EPHEMERIS_TYPE":0,"CLASSIFICATION_TYPE":"U","NORAD_CAT_ID":67877,"ELEMENT_SET_NO":999,"REV_AT_EPOCH":381,"BSTAR":0.0012938056,"MEAN_MOTION_DOT":0.0026393,"MEAN_MOTION_DDOT":0},{"OBJECT_NAME":"STARLINK-36689","OBJECT_ID":"2026-034AE","EPOCH":"2026-03-08T21:19:49.694304","MEAN_MOTION":15.80978357,"ECCENTRICITY":0.00011333,"INCLINATION":53.1598,"RA_OF_ASC_NODE":215.1209,"ARG_OF_PERICENTER":122.5569,"MEAN_ANOMALY":237.5564,"EPHEMERIS_TYPE":0,"CLASSIFICATION_TYPE":"U","NORAD_CAT_ID":67878,"ELEMENT_SET_NO":999,"REV_AT_EPOCH":381,"BSTAR":0.0012616548,"MEAN_MOTION_DOT":0.00257112,"MEAN_MOTION_DDOT":0},{"OBJECT_NAME":"STARLINK-36818","OBJECT_ID":"2026-035A","EPOCH":"2026-03-08T22:00:01.999584","MEAN_MOTION":15.89436045,"ECCENTRICITY":0.00011533,"INCLINATION":97.2739,"RA_OF_ASC_NODE":0.1882,"ARG_OF_PERICENTER":91.731,"MEAN_ANOMALY":354.1469,"EPHEMERIS_TYPE":0,"CLASSIFICATION_TYPE":"U","NORAD_CAT_ID":67879,"ELEMENT_SET_NO":999,"REV_AT_EPOCH":363,"BSTAR":-0.0042307617,"MEAN_MOTION_DOT":-0.01217899,"MEAN_MOTION_DDOT":0.00042296927},{"OBJECT_NAME":"STARLINK-36821","OBJECT_ID":"2026-035B","EPOCH":"2026-03-08T22:00:01.999584","MEAN_MOTION":15.89519466,"ECCENTRICITY":0.00011717,"INCLINATION":97.2733,"RA_OF_ASC_NODE":0.1918,"ARG_OF_PERICENTER":84.3968,"MEAN_ANOMALY":9.8117,"EPHEMERIS_TYPE":0,"CLASSIFICATION_TYPE":"U","NORAD_CAT_ID":67880,"ELEMENT_SET_NO":999,"REV_AT_EPOCH":363,"BSTAR":-0.0042527295,"MEAN_MOTION_DOT":-0.01229236,"MEAN_MOTION_DDOT":0.00043064206},{"OBJECT_NAME":"STARLINK-36808","OBJECT_ID":"2026-035C","EPOCH":"2026-03-08T22:00:01.999584","MEAN_MOTION":15.8950497,"ECCENTRICITY":0.0001152,"INCLINATION":97.2735,"RA_OF_ASC_NODE":0.1895,"ARG_OF_PERICENTER":85.8083,"MEAN_ANOMALY":3.5938,"EPHEMERIS_TYPE":0,"CLASSIFICATION_TYPE":"U","NORAD_CAT_ID":67881,"ELEMENT_SET_NO":999,"REV_AT_EPOCH":363,"BSTAR":-0.0042292165,"MEAN_MOTION_DOT":-0.01221618,"MEAN_MOTION_DDOT":0.00042565127},{"OBJECT_NAME":"STARLINK-36817","OBJECT_ID":"2026-035D","EPOCH":"2026-03-08T22:00:01.999584","MEAN_MOTION":15.89578514,"ECCENTRICITY":0.00012138,"INCLINATION":97.272,"RA_OF_ASC_NODE":0.1948,"ARG_OF_PERICENTER":89.2252,"MEAN_ANOMALY":14.4691,"EPHEMERIS_TYPE":0,"CLASSIFICATION_TYPE":"U","NORAD_CAT_ID":67882,"ELEMENT_SET_NO":999,"REV_AT_EPOCH":363,"BSTAR":-0.0045706709,"MEAN_MOTION_DOT":-0.01324145,"MEAN_MOTION_DDOT":0.00049450507},{"OBJECT_NAME":"STARLINK-36856","OBJECT_ID":"2026-035E","EPOCH":"2026-03-08T22:00:01.999584","MEAN_MOTION":15.89540568,"ECCENTRICITY":0.00011895,"INCLINATION":97.2728,"RA_OF_ASC_NODE":0.1934,"ARG_OF_PERICENTER":85.8025,"MEAN_ANOMALY":13.3608,"EPHEMERIS_TYPE":0,"CLASSIFICATION_TYPE":"U","NORAD_CAT_ID":67883,"ELEMENT_SET_NO":999,"REV_AT_EPOCH":363,"BSTAR":-0.0044033248,"MEAN_MOTION_DOT":-0.01273705,"MEAN_MOTION_DDOT":0.00046003177},{"OBJECT_NAME":"STARLINK-36842","OBJECT_ID":"2026-035F","EPOCH":"2026-03-08T22:00:01.999584","MEAN_MOTION":15.89615257,"ECCENTRICITY":0.00012415,"INCLINATION":97.272,"RA_OF_ASC_NODE":0.1968,"ARG_OF_PERICENTER":80.6972,"MEAN_ANOMALY":27.3397,"EPHEMERIS_TYPE":0,"CLASSIFICATION_TYPE":"U","NORAD_CAT_ID":67884,"ELEMENT_SET_NO":999,"REV_AT_EPOCH":363,"BSTAR":-0.0046841168,"MEAN_MOTION_DOT":-0.01359169,"MEAN_MOTION_DDOT":0.00051917127},{"OBJECT_NAME":"STARLINK-36826","OBJECT_ID":"2026-035G","EPOCH":"2026-03-08T22:00:01.999584","MEAN_MOTION":15.8966841,"ECCENTRICITY":0.00012547,"INCLINATION":97.2718,"RA_OF_ASC_NODE":0.1984,"ARG_OF_PERICENTER":93.0951,"MEAN_ANOMALY":18.7265,"EPHEMERIS_TYPE":0,"CLASSIFICATION_TYPE":"U","NORAD_CAT_ID":67885,"ELEMENT_SET_NO":999,"REV_AT_EPOCH":363,"BSTAR":-0.004698969,"MEAN_MOTION_DOT":-0.01367031,"MEAN_MOTION_DDOT":0.00052501011},{"OBJECT_NAME":"STARLINK-36390","OBJECT_ID":"2026-035H","EPOCH":"2026-03-08T22:00:01.999584","MEAN_MOTION":15.89652211,"ECCENTRICITY":0.00012686,"INCLINATION":97.2712,"RA_OF_ASC_NODE":0.2001,"ARG_OF_PERICENTER":89.8843,"MEAN_ANOMALY":26.8938,"EPHEMERIS_TYPE":0,"CLASSIFICATION_TYPE":"U","NORAD_CAT_ID":67886,"ELEMENT_SET_NO":999,"REV_AT_EPOCH":368,"BSTAR":-0.004737373,"MEAN_MOTION_DOT":-0.01376991,"MEAN_MOTION_DDOT":0.00053202763},{"OBJECT_NAME":"STARLINK-36368","OBJECT_ID":"2026-035J","EPOCH":"2026-03-08T22:00:01.999584","MEAN_MOTION":15.8964205,"ECCENTRICITY":0.00012786,"INCLINATION":97.271,"RA_OF_ASC_NODE":0.2021,"ARG_OF_PERICENTER":82.4771,"MEAN_ANOMALY":39.0849,"EPHEMERIS_TYPE":0,"CLASSIFICATION_TYPE":"U","NORAD_CAT_ID":67887,"ELEMENT_SET_NO":999,"REV_AT_EPOCH":363,"BSTAR":-0.0047483936,"MEAN_MOTION_DOT":-0.01379471,"MEAN_MOTION_DDOT":0.00053375108},{"OBJECT_NAME":"STARLINK-36801","OBJECT_ID":"2026-035K","EPOCH":"2026-03-08T22:00:01.999584","MEAN_MOTION":15.89646641,"ECCENTRICITY":0.00013566,"INCLINATION":97.2705,"RA_OF_ASC_NODE":0.2039,"ARG_OF_PERICENTER":86.3088,"MEAN_ANOMALY":39.9112,"EPHEMERIS_TYPE":0,"CLASSIFICATION_TYPE":"U","NORAD_CAT_ID":67888,"ELEMENT_SET_NO":999,"REV_AT_EPOCH":363,"BSTAR":-0.0047854942,"MEAN_MOTION_DOT":-0.0139047,"MEAN_MOTION_DDOT":0.00054167672}]
