STARLINK-36783          
1 67873U 26034Z   26067.89251944  .00284059  00000+0  13883-2 0  9991
2 67873  53.1595 215.1467 0000811 106.2526 253.8587 15.80991855  3810
STARLINK-36730          
1 67874U 26034AA  26067.89176895  .00367705  00000+0  17763-2 0  9994
2 67874  53.1596 215.1421 0001345  46.6952 313.4182 15.81020028  3815
STARLINK-36727          
1 67875U 26034AB  26067.89101914  .00345704  00000+0  16754-2 0  9999
2 67875  53.1597 215.1364 0001121  50.3906 309.7215 15.81008674  3814
STARLINK-36743          
1 67876U 26034AC  26067.89027061  .00206750  00000+0  10223-2 0  9992
2 67876  53.1601 215.1310 0000992  73.4545 286.6587 15.80954822  3811
STARLINK-36784          
1 67877U 26034AD  26067.88951923  .00263930  00000+0  12938-2 0  9993
2 67877  53.1601 215.1260 0000857 112.4561 247.6552 15.80981248  3819
STARLINK-36689          
1 67878U 26034AE  26067.88876961  .00257112  00000+0  12617-2 0  9991
2 67878  53.1598 215.1209 0001133 122.5569 237.5564 15.80978357  3814
STARLINK-36818          
1 67879U 26035A   26067.91668981 -.01217899  42297-3 -42308-2 0  9997
2 67879  97.2739   0.1882 0001153  91.7310 354.1469 15.89436045  3635
STARLINK-36821          
1 67880U 26035B   26067.91668981 -.01229236  43064-3 -42527-2 0  9993
2 67880  97.2733   0.1918 0001171  84.3968   9.8117 15.89519466  3631
STARLINK-36808          
1 67881U 26035C   26067.91668981 -.01221618  42565-3 -42292-2 0  9994
2 67881  97.2735   0.1895 0001152  85.8083   3.5938 15.89504970  3637
STARLINK-36817          
1 67882U 26035D   26067.91668981 -.01324145  49451-3 -45707-2 0  9999
2 67882  97.2720   0.1948 0001213  89.2252  14.4691 15.89578514  3637
STARLINK-36856          
1 67883U 26035E   26067.91668981 -.01273705  46003-3 -44033-2 0  9996
2 67883  97.2728   0.1934 0001189  85.8025  13.3608 15.89540568  3637
STARLINK-36842          
1 67884U 26035F   26067.91668981 -.01359169  51917-3 -46841-2 0  9995
2 67884  97.2720   0.1968 0001241  80.6972  27.3397 15.89615257  3638
STARLINK-36826          
1 67885U 26035G   26067.91668981 -.01367031  52501-3 -46990-2 0  9998
2 67885  97.2718   0.1984 0001254  93.0951  18.7265 15.89668410  3630
STARLINK-36390          
1 67886U 26035H   26067.91668981 -.01376991  53203-3 -47374-2 0  9991
2 67886  97.2712   0.2001 0001268  89.8843  26.8938 15.89652211  3688
STARLINK-36368          
1 67887U 26035J   26067.91668981 -.01379471  53375-3 -47484-2 0  9990
2 67887  97.2710   0.2021 0001278  82.4771  39.0849 15.89642050  3631
STARLINK-36801          
1 67888U 26035K   26067.91668981 -.01390470  54168-3 -47855-2 0  9996
2 67888  97.2705   0.2039 0001356  86.3088  39.9112 15.89646641  3638
